STARLINK-2022           
1 47643U 21012Z   24023.02918040  .00016236  00000+0  11064-2 0  9996
2 47643  53.0540 298.1877 0002217 152.9728 207.1376 15.06397210162684
